[{"CCSDS_OMM_VERS":"2.0","COMMENT":"GENERATED VIA SPACE-TRACK.ORG API","CREATION_DATE":"2022-12-08T18:21:51","ORIGINATOR":"18 SPCS","OBJECT_NAME":"DIRECTV 6 (TEMPO 2)","OBJECT_ID":"1997-011A","CENTER_NAME":"EARTH","REF_FRAME":"TEME","TIME_SYSTEM":"UTC","MEAN_ELEMENT_THEORY":"SGP4","EPOCH":"2022-12-08T05:23:33.832032","MEAN_MOTION":"0.99028672","ECCENTRICITY":"0.00251750","INCLINATION":"11.5213","RA_OF_ASC_NODE":"31.3818","ARG_OF_PERICENTER":"285.5037","MEAN_ANOMALY":"113.2542","EPHEMERIS_TYPE":"0","CLASSIFICATION_TYPE":"U","NORAD_CAT_ID":"24748","ELEMENT_SET_NO":"999","REV_AT_EPOCH":"9374","BSTAR":"0.00000000000000","MEAN_MOTION_DOT":"-0.00000047","MEAN_MOTION_DDOT":"0.0000000000000","SEMIMAJOR_AXIS":"42516.862","PERIOD":"1454.124","APOAPSIS":"36245.763","PERIAPSIS":"36031.691","OBJECT_TYPE":"PAYLOAD","RCS_SIZE":"LARGE","COUNTRY_CODE":"US","LAUNCH_DATE":"1997-03-08","SITE":"AFETR","DECAY_DATE":null,"FILE":"3684614","GP_ID":"219759981","TLE_LINE0":"0 DIRECTV 6 (TEMPO 2)","TLE_LINE1":"1 24748U 97011A   22342.22469713 -.00000047  00000-0  00000-0 0  9992","TLE_LINE2":"2 24748  11.5213  31.3818 0025175 285.5037 113.2542  0.99028672 93748"},{"CCSDS_OMM_VERS":"2.0","COMMENT":"GENERATED VIA SPACE-TRACK.ORG API","CREATION_DATE":"2022-12-08T18:21:51","ORIGINATOR":"18 SPCS","OBJECT_NAME":"IUS R\/B(2)","OBJECT_ID":"1997-008D","CENTER_NAME":"EARTH","REF_FRAME":"TEME","TIME_SYSTEM":"UTC","MEAN_ELEMENT_THEORY":"SGP4","EPOCH":"2022-12-07T19:25:50.527776","MEAN_MOTION":"0.99503027","ECCENTRICITY":"0.00244980","INCLINATION":"14.1344","RA_OF_ASC_NODE":"13.4550","ARG_OF_PERICENTER":"153.7005","MEAN_ANOMALY":"206.4047","EPHEMERIS_TYPE":"0","CLASSIFICATION_TYPE":"U","NORAD_CAT_ID":"24740","ELEMENT_SET_NO":"999","REV_AT_EPOCH":"1298","BSTAR":"0.00000000000000","MEAN_MOTION_DOT":"-0.00000113","MEAN_MOTION_DDOT":"0.0000000000000","SEMIMAJOR_AXIS":"42381.629","PERIOD":"1447.192","APOAPSIS":"36107.321","PERIAPSIS":"35899.668","OBJECT_TYPE":"ROCKET BODY","RCS_SIZE":null,"COUNTRY_CODE":"US","LAUNCH_DATE":"1997-02-23","SITE":"AFETR","DECAY_DATE":null,"FILE":"3684614","GP_ID":"219760732","TLE_LINE0":"0 IUS R\/B(2)","TLE_LINE1":"1 24740U 97008D   22341.80961259 -.00000113  00000-0  00000-0 0  9999","TLE_LINE2":"2 24740  14.1344  13.4550 0024498 153.7005 206.4047  0.99503027 12980"},{"CCSDS_OMM_VERS":"2.0","COMMENT":"GENERATED VIA SPACE-TRACK.ORG API","CREATION_DATE":"2022-12-08T18:21:51","ORIGINATOR":"18 SPCS","OBJECT_NAME":"USA 130","OBJECT_ID":"1997-008A","CENTER_NAME":"EARTH","REF_FRAME":"TEME","TIME_SYSTEM":"UTC","MEAN_ELEMENT_THEORY":"SGP4","EPOCH":"2022-12-08T12:13:24.326112","MEAN_MOTION":"0.99032593","ECCENTRICITY":"0.00084840","INCLINATION":"13.9591","RA_OF_ASC_NODE":"12.8800","ARG_OF_PERICENTER":"295.3713","MEAN_ANOMALY":"92.6632","EPHEMERIS_TYPE":"0","CLASSIFICATION_TYPE":"U","NORAD_CAT_ID":"24737","ELEMENT_SET_NO":"999","REV_AT_EPOCH":"607","BSTAR":"0.00000000000000","MEAN_MOTION_DOT":"-0.00000292","MEAN_MOTION_DDOT":"0.0000000000000","SEMIMAJOR_AXIS":"42515.740","PERIOD":"1454.067","APOAPSIS":"36173.675","PERIAPSIS":"36101.534","OBJECT_TYPE":"PAYLOAD","RCS_SIZE":null,"COUNTRY_CODE":"US","LAUNCH_DATE":"1997-02-23","SITE":"AFETR","DECAY_DATE":null,"FILE":"3684614","GP_ID":"219759231","TLE_LINE0":"0 USA 130","TLE_LINE1":"1 24737U 97008A   22342.50930933 -.00000292  00000-0  00000-0 0  9996","TLE_LINE2":"2 24737  13.9591  12.8800 0008484 295.3713  92.6632  0.99032593  6077"},{"CCSDS_OMM_VERS":"2.0","COMMENT":"GENERATED VIA SPACE-TRACK.ORG API","CREATION_DATE":"2022-12-08T18:21:51","ORIGINATOR":"18 SPCS","OBJECT_NAME":"NAHUEL 1A","OBJECT_ID":"1997-002B","CENTER_NAME":"EARTH","REF_FRAME":"TEME","TIME_SYSTEM":"UTC","MEAN_ELEMENT_THEORY":"SGP4","EPOCH":"2022-12-08T10:08:06.993888","MEAN_MOTION":"0.99386662","ECCENTRICITY":"0.00060080","INCLINATION":"10.5874","RA_OF_ASC_NODE":"37.1605","ARG_OF_PERICENTER":"151.8491","MEAN_ANOMALY":"245.7113","EPHEMERIS_TYPE":"0","CLASSIFICATION_TYPE":"U","NORAD_CAT_ID":"24714","ELEMENT_SET_NO":"999","REV_AT_EPOCH":"9426","BSTAR":"0.00000000000000","MEAN_MOTION_DOT":"0.00000042","MEAN_MOTION_DDOT":"0.0000000000000","SEMIMAJOR_AXIS":"42414.704","PERIOD":"1448.887","APOAPSIS":"36062.052","PERIAPSIS":"36011.086","OBJECT_TYPE":"PAYLOAD","RCS_SIZE":"LARGE","COUNTRY_CODE":"ARGN","LAUNCH_DATE":"1997-01-30","SITE":"FRGUI","DECAY_DATE":null,"FILE":"3684614","GP_ID":"219760730","TLE_LINE0":"0 NAHUEL 1A","TLE_LINE1":"1 24714U 97002B   22342.42230317  .00000042  00000-0  00000-0 0  9997","TLE_LINE2":"2 24714  10.5874  37.1605 0006008 151.8491 245.7113  0.99386662 94263"},{"CCSDS_OMM_VERS":"2.0","COMMENT":"GENERATED VIA SPACE-TRACK.ORG API","CREATION_DATE":"2022-12-08T18:21:51","ORIGINATOR":"18 SPCS","OBJECT_NAME":"AMC-2 (GE-2)","OBJECT_ID":"1997-002A","CENTER_NAME":"EARTH","REF_FRAME":"TEME","TIME_SYSTEM":"UTC","MEAN_ELEMENT_THEORY":"SGP4","EPOCH":"2022-12-08T00:32:42.608832","MEAN_MOTION":"0.99473367","ECCENTRICITY":"0.00034430","INCLINATION":"8.1536","RA_OF_ASC_NODE":"55.1785","ARG_OF_PERICENTER":"109.2679","MEAN_ANOMALY":"245.5929","EPHEMERIS_TYPE":"0","CLASSIFICATION_TYPE":"U","NORAD_CAT_ID":"24713","ELEMENT_SET_NO":"999","REV_AT_EPOCH":"9461","BSTAR":"0.00000000000000","MEAN_MOTION_DOT":"-0.00000261","MEAN_MOTION_DDOT":"0.0000000000000","SEMIMAJOR_AXIS":"42390.053","PERIOD":"1447.624","APOAPSIS":"36026.513","PERIAPSIS":"35997.323","OBJECT_TYPE":"PAYLOAD","RCS_SIZE":"LARGE","COUNTRY_CODE":"SES","LAUNCH_DATE":"1997-01-30","SITE":"FRGUI","DECAY_DATE":null,"FILE":"3684614","GP_ID":"219759478","TLE_LINE0":"0 AMC-2 (GE-2)","TLE_LINE1":"1 24713U 97002A   22342.02271538 -.00000261  00000-0  00000-0 0  9996","TLE_LINE2":"2 24713   8.1536  55.1785 0003443 109.2679 245.5929  0.99473367 94615"},{"CCSDS_OMM_VERS":"2.0","COMMENT":"GENERATED VIA SPACE-TRACK.ORG API","CREATION_DATE":"2022-12-08T18:21:51","ORIGINATOR":"18 SPCS","OBJECT_NAME":"INMARSAT 3-F3","OBJECT_ID":"1996-070A","CENTER_NAME":"EARTH","REF_FRAME":"TEME","TIME_SYSTEM":"UTC","MEAN_ELEMENT_THEORY":"SGP4","EPOCH":"2022-12-08T09:44:56.247648","MEAN_MOTION":"0.99981162","ECCENTRICITY":"0.00053690","INCLINATION":"7.5084","RA_OF_ASC_NODE":"60.5288","ARG_OF_PERICENTER":"184.1353","MEAN_ANOMALY":"234.2566","EPHEMERIS_TYPE":"0","CLASSIFICATION_TYPE":"U","NORAD_CAT_ID":"24674","ELEMENT_SET_NO":"999","REV_AT_EPOCH":"9504","BSTAR":"0.00000000000000","MEAN_MOTION_DOT":"-0.00000047","MEAN_MOTION_DDOT":"0.0000000000000","SEMIMAJOR_AXIS":"42246.401","PERIOD":"1440.271","APOAPSIS":"35890.949","PERIAPSIS":"35845.584","OBJECT_TYPE":"PAYLOAD","RCS_SIZE":"LARGE","COUNTRY_CODE":"IM","LAUNCH_DATE":"1996-12-18","SITE":"AFETR","DECAY_DATE":null,"FILE":"3684614","GP_ID":"219760228","TLE_LINE0":"0 INMARSAT 3-F3","TLE_LINE1":"1 24674U 96070A   22342.40620657 -.00000047  00000-0  00000-0 0  9990","TLE_LINE2":"2 24674   7.5084  60.5288 0005369 184.1353 234.2566  0.99981162 95047"},{"CCSDS_OMM_VERS":"2.0","COMMENT":"GENERATED VIA SPACE-TRACK.ORG API","CREATION_DATE":"2022-12-08T18:21:51","ORIGINATOR":"18 SPCS","OBJECT_NAME":"MEASAT 2","OBJECT_ID":"1996-063B","CENTER_NAME":"EARTH","REF_FRAME":"TEME","TIME_SYSTEM":"UTC","MEAN_ELEMENT_THEORY":"SGP4","EPOCH":"2022-12-08T08:48:42.604128","MEAN_MOTION":"0.99660824","ECCENTRICITY":"0.00041680","INCLINATION":"10.3334","RA_OF_ASC_NODE":"37.6183","ARG_OF_PERICENTER":"133.0513","MEAN_ANOMALY":"221.0184","EPHEMERIS_TYPE":"0","CLASSIFICATION_TYPE":"U","NORAD_CAT_ID":"24653","ELEMENT_SET_NO":"999","REV_AT_EPOCH":"9545","BSTAR":"0.00000000000000","MEAN_MOTION_DOT":"-0.00000053","MEAN_MOTION_DDOT":"0.0000000000000","SEMIMAJOR_AXIS":"42336.881","PERIOD":"1444.901","APOAPSIS":"35976.392","PERIAPSIS":"35941.100","OBJECT_TYPE":"PAYLOAD","RCS_SIZE":"LARGE","COUNTRY_CODE":"MALA","LAUNCH_DATE":"1996-11-13","SITE":"FRGUI","DECAY_DATE":null,"FILE":"3684614","GP_ID":"219760971","TLE_LINE0":"0 MEASAT 2","TLE_LINE1":"1 24653U 96063B   22342.36715977 -.00000053  00000-0  00000-0 0  9991","TLE_LINE2":"2 24653  10.3334  37.6183 0004168 133.0513 221.0184  0.99660824 95454"},{"CCSDS_OMM_VERS":"2.0","COMMENT":"GENERATED VIA SPACE-TRACK.ORG API","CREATION_DATE":"2022-12-08T03:13:54","ORIGINATOR":"18 SPCS","OBJECT_NAME":"ARABSAT 2B","OBJECT_ID":"1996-063A","CENTER_NAME":"EARTH","REF_FRAME":"TEME","TIME_SYSTEM":"UTC","MEAN_ELEMENT_THEORY":"SGP4","EPOCH":"2022-12-07T19:52:48.527616","MEAN_MOTION":"0.99409758","ECCENTRICITY":"0.00026810","INCLINATION":"7.7873","RA_OF_ASC_NODE":"59.4891","ARG_OF_PERICENTER":"154.9433","MEAN_ANOMALY":"262.4677","EPHEMERIS_TYPE":"0","CLASSIFICATION_TYPE":"U","NORAD_CAT_ID":"24652","ELEMENT_SET_NO":"999","REV_AT_EPOCH":"9566","BSTAR":"0.00000000000000","MEAN_MOTION_DOT":"-0.00000149","MEAN_MOTION_DDOT":"0.0000000000000","SEMIMAJOR_AXIS":"42408.134","PERIOD":"1448.550","APOAPSIS":"36041.369","PERIAPSIS":"36018.629","OBJECT_TYPE":"PAYLOAD","RCS_SIZE":"LARGE","COUNTRY_CODE":"AB","LAUNCH_DATE":"1996-11-13","SITE":"FRGUI","DECAY_DATE":null,"FILE":"3684212","GP_ID":"219726121","TLE_LINE0":"0 ARABSAT 2B","TLE_LINE1":"1 24652U 96063A   22341.82833944 -.00000149  00000-0  00000-0 0  9991","TLE_LINE2":"2 24652   7.7873  59.4891 0002681 154.9433 262.4677  0.99409758 95666"}]